{
  "type": "FeatureCollection",
  "features": [
    {
      "type": "Feature",
      "properties": {
        "id": "andes-amazon-loop",
        "name": "Planning preview — not operational",
        "status": "planningOnly"
      },
      "geometry": {
        "type": "LineString",
        "coordinates": [
          [
            -78.338,
            -0.226
          ],
          [
            -78.25,
            -0.1
          ],
          [
            -78.145,
            0.0408
          ],
          [
            -78.004,
            0.018
          ],
          [
            -78.338,
            -0.226
          ],
          [
            -78.142,
            -0.368
          ],
          [
            -77.891,
            -0.463
          ],
          [
            -77.807,
            -0.909
          ],
          [
            -77.8129,
            -0.9938
          ],
          [
            -78.05,
            -1.25
          ],
          [
            -78.424,
            -1.396
          ],
          [
            -78.62,
            -1.25
          ],
          [
            -78.75,
            -0.95
          ],
          [
            -78.902,
            -0.858
          ],
          [
            -78.921,
            -0.803
          ],
          [
            -78.436,
            -0.68
          ],
          [
            -78.567,
            -0.5102
          ],
          [
            -78.338,
            -0.226
          ]
        ]
      }
    },
    {
      "type": "Feature",
      "properties": {
        "id": "pacific-extension",
        "name": "Optional E15 surf extension — planning only",
        "status": "planningOnly"
      },
      "geometry": {
        "type": "LineString",
        "coordinates": [
          [
            -78.338,
            -0.226
          ],
          [
            -79.2,
            -0.6
          ],
          [
            -80.423,
            -0.6
          ],
          [
            -80.454,
            -0.466
          ],
          [
            -80.735,
            -0.953
          ],
          [
            -80.813,
            -1.679
          ],
          [
            -80.753,
            -1.827
          ]
        ]
      }
    }
  ]
}
